[{"OBJECT_NAME":"STARLINK-1540","OBJECT_ID":"2020-055AA","EPOCH":"2026-03-09T16:00:03.000096","MEAN_MOTION":15.30181677,"ECCENTRICITY":0.0001277,"INCLINATION":53.1586,"RA_OF_ASC_NODE":113.9518,"ARG_OF_PERICENTER":96.4813,"MEAN_ANOMALY":168.6408,"EPHEMERIS_TYPE":0,"CLASSIFICATION_TYPE":"U","NORAD_CAT_ID":46051,"ELEMENT_SET_NO":999,"REV_AT_EPOCH":564,"BSTAR":0.00038992,"MEAN_MOTION_DOT":0.000112,"MEAN_MOTION_DDOT":0},{"OBJECT_NAME":"OBJECT J","OBJECT_ID":"2023-085J","EPOCH":"2026-03-09T22:47:59.920512","MEAN_MOTION":15.31507187,"ECCENTRICITY":0.00067028,"INCLINATION":97.4828,"RA_OF_ASC_NODE":180.1819,"ARG_OF_PERICENTER":41.7877,"MEAN_ANOMALY":318.3875,"EPHEMERIS_TYPE":0,"CLASSIFICATION_TYPE":"U","NORAD_CAT_ID":57012,"ELEMENT_SET_NO":999,"REV_AT_EPOCH":15156,"BSTAR":0.00064525349,"MEAN_MOTION_DOT":0.00019595,"MEAN_MOTION_DDOT":0}]
